{
    "links": {
        "self": "http://www.neowsapp.com/rest/v1/neo/3555795?api_key=iIulBulltgU6a56xZRHN4H3l9WmuAYTsLGpBGhQ2"
    },
    "id": "3555795",
    "neo_reference_id": "3555795",
    "name": "(2011 BF39)",
    "designation": "2011 BF39",
    "nasa_jpl_url": "http://ssd.jpl.nasa.gov/sbdb.cgi?sstr=3555795",
    "absolute_magnitude_h": 24.5,
    "estimated_diameter": {
        "kilometers": {
            "estimated_diameter_min": 0.0334622374,
            "estimated_diameter_max": 0.0748238376
        },
        "meters": {
            "estimated_diameter_min": 33.4622374455,
            "estimated_diameter_max": 74.8238376074
        },
        "miles": {
            "estimated_diameter_min": 0.0207924639,
            "estimated_diameter_max": 0.0464933628
        },
        "feet": {
            "estimated_diameter_min": 109.7842471007,
            "estimated_diameter_max": 245.4850393757
        }
    },
    "is_potentially_hazardous_asteroid": false,
    "close_approach_data": [
        {
            "close_approach_date": "1914-03-11",
            "close_approach_date_full": "1914-Mar-11 02:42",
            "epoch_date_close_approach": -1761254280000,
            "relative_velocity": {
                "kilometers_per_second": "25.4333505403",
                "kilometers_per_hour": "91560.0619451394",
                "miles_per_hour": "56891.861823634"
            },
            "miss_distance": {
                "astronomical": "0.4839227482",
                "lunar": "188.2459490498",
                "kilometers": "72393812.375266334",
                "miles": "44983429.1006660492"
            },
            "orbiting_body": "Earth"
        },
        {
            "close_approach_date": "2011-01-29",
            "close_approach_date_full": "2011-Jan-29 08:31",
            "epoch_date_close_approach": 1296289860000,
            "relative_velocity": {
                "kilometers_per_second": "10.8094969512",
                "kilometers_per_hour": "38914.1890242228",
                "miles_per_hour": "24179.7637300789"
            },
            "miss_distance": {
                "astronomical": "0.0389670804",
                "lunar": "15.1581942756",
                "kilometers": "5829392.227958748",
                "miles": "3622216.3660488024"
            },
            "orbiting_body": "Earth"
        },
        {
            "close_approach_date": "2014-11-18",
            "close_approach_date_full": "2014-Nov-18 20:13",
            "epoch_date_close_approach": 1416341580000,
            "relative_velocity": {
                "kilometers_per_second": "14.366886555",
                "kilometers_per_hour": "51720.7915979492",
                "miles_per_hour": "32137.288534848"
            },
            "miss_distance": {
                "astronomical": "0.2019016317",
                "lunar": "78.5397347313",
                "kilometers": "30204054.051844479",
                "miles": "18767928.9073886502"
            },
            "orbiting_body": "Earth"
        }
    ],
    "orbital_data": {
        "orbit_id": "11",
        "orbit_determination_date": "2017-04-06 08:54:46",
        "first_observation_date": "2011-01-28",
        "last_observation_date": "2011-03-01",
        "data_arc_in_days": 32,
        "observations_used": 39,
        "orbit_uncertainty": "7",
        "minimum_orbit_intersection": ".0110407",
        "jupiter_tisserand_invariant": "3.172",
        "epoch_osculation": "2459000.5",
        "eccentricity": ".6118633960889732",
        "semi_major_axis": "2.495603907783456",
        "inclination": "7.141786158619774",
        "ascending_node_longitude": "123.8941222675868",
        "orbital_period": "1439.998077823693",
        "perihelion_distance": ".9686352254741579",
        "perihelion_argument": "336.1417433855383",
        "aphelion_distance": "4.022572590092754",
        "perihelion_time": "2458443.176224917275",
        "mean_anomaly": "139.3311297560955",
        "mean_motion": ".2500003337116098",
        "equinox": "J2000",
        "orbit_class": {
            "orbit_class_type": "APO",
            "orbit_class_description": "Near-Earth asteroid orbits which cross the Earth’s orbit similar to that of 1862 Apollo",
            "orbit_class_range": "a (semi-major axis) > 1.0 AU; q (perihelion) < 1.017 AU"
        }
    },
    "is_sentry_object": false
}